[
    {
        "Altitude(m)": 554271.1241828173,
        "Argument of Periapsis(deg)": 0.026491964442854003,
        "Eccentricity": 0.0,
        "Inclination(deg)": 53.0,
        "Latitude(deg)": 24.581634344355408,
        "Longitude(deg)": 6.864944776801799,
        "Mean Anomaly(deg)": 31.275571470310346,
        "RAAN(deg)": 89.96057347411208,
        "Satellite Name": "Starlink Shell 1 417",
        "Satellite Number": 417,
        "Semi-Major Axis(m)": 6931778.249405717,
        "Time(s)": 760
    },
    {
        "Altitude(m)": 554329.2138980858,
        "Argument of Periapsis(deg)": 0.02684054292236524,
        "Eccentricity": 0.0,
        "Inclination(deg)": 53.0,
        "Latitude(deg)": 25.053707354740386,
        "Longitude(deg)": 7.280465504909265,
        "Mean Anomaly(deg)": 31.902402673867105,
        "RAAN(deg)": 89.96005470403459,
        "Satellite Name": "Starlink Shell 1 417",
        "Satellite Number": 417,
        "Semi-Major Axis(m)": 6931778.249405717,
        "Time(s)": 770
    },
    {
        "Altitude(m)": 554388.9150816675,
        "Argument of Periapsis(deg)": 0.027189121401876473,
        "Eccentricity": 0.0,
        "Inclination(deg)": 53.0,
        "Latitude(deg)": 25.524335776667375,
        "Longitude(deg)": 7.699491054247233,
        "Mean Anomaly(deg)": 32.52923387742376,
        "RAAN(deg)": 89.95953593395711,
        "Satellite Name": "Starlink Shell 1 417",
        "Satellite Number": 417,
        "Semi-Major Axis(m)": 6931778.249405717,
        "Time(s)": 780
    },
    {
        "Altitude(m)": 554450.1789371244,
        "Argument of Periapsis(deg)": 0.02753769988138771,
        "Eccentricity": 0.0,
        "Inclination(deg)": 53.0,
        "Latitude(deg)": 25.993477792552735,
        "Longitude(deg)": 8.122113648710247,
        "Mean Anomaly(deg)": 33.156065080980405,
        "RAAN(deg)": 89.95901716387965,
        "Satellite Name": "Starlink Shell 1 417",
        "Satellite Number": 417,
        "Semi-Major Axis(m)": 6931778.249405717,
        "Time(s)": 790
    },
    {
        "Altitude(m)": 554512.9560612167,
        "Argument of Periapsis(deg)": 0.02788627836089895,
        "Eccentricity": 0.0,
        "Inclination(deg)": 53.0,
        "Latitude(deg)": 26.461090703825157,
        "Longitude(deg)": 8.548426293952181,
        "Mean Anomaly(deg)": 33.782896284537166,
        "RAAN(deg)": 89.95849839380217,
        "Satellite Name": "Starlink Shell 1 417",
        "Satellite Number": 417,
        "Semi-Major Axis(m)": 6931778.249405717,
        "Time(s)": 800
    },
    {
        "Altitude(m)": 554577.196470445,
        "Argument of Periapsis(deg)": 0.02823485684041019,
        "Eccentricity": 0.0,
        "Inclination(deg)": 53.0,
        "Latitude(deg)": 26.927130903410585,
        "Longitude(deg)": 8.978523293407989,
        "Mean Anomaly(deg)": 34.40972748809385,
        "RAAN(deg)": 89.9579796237247,
        "Satellite Name": "Starlink Shell 1 417",
        "Satellite Number": 417,
        "Semi-Major Axis(m)": 6931778.249405717,
        "Time(s)": 810
    },
    {
        "Altitude(m)": 554642.8496278962,
        "Argument of Periapsis(deg)": 0.028583435319921423,
        "Eccentricity": 0.0,
        "Inclination(deg)": 53.0,
        "Latitude(deg)": 27.39155384769603,
        "Longitude(deg)": 9.412500762343235,
        "Mean Anomaly(deg)": 35.0365586916506,
        "RAAN(deg)": 89.95746085364723,
        "Satellite Name": "Starlink Shell 1 417",
        "Satellite Number": 417,
        "Semi-Major Axis(m)": 6931778.249405717,
        "Time(s)": 820
    },
    {
        "Altitude(m)": 554709.8644702724,
        "Argument of Periapsis(deg)": 0.028932013799432665,
        "Eccentricity": 0.0,
        "Inclination(deg)": 53.0,
        "Latitude(deg)": 27.85431402797582,
        "Longitude(deg)": 9.850455626868145,
        "Mean Anomaly(deg)": 35.66338989520735,
        "RAAN(deg)": 89.95694208356976,
        "Satellite Name": "Starlink Shell 1 417",
        "Satellite Number": 417,
        "Semi-Major Axis(m)": 6931778.249405717,
        "Time(s)": 830
    },
    {
        "Altitude(m)": 554778.1894351739,
        "Argument of Periapsis(deg)": 0.029280592278943897,
        "Eccentricity": 0.0,
        "Inclination(deg)": 53.0,
        "Latitude(deg)": 28.31536494139802,
        "Longitude(deg)": 10.292486133462049,
        "Mean Anomaly(deg)": 36.29022109876401,
        "RAAN(deg)": 89.95642331349228,
        "Satellite Name": "Starlink Shell 1 417",
        "Satellite Number": 417,
        "Semi-Major Axis(m)": 6931778.249405717,
        "Time(s)": 840
    },
    {
        "Altitude(m)": 554847.7724885846,
        "Argument of Periapsis(deg)": 0.029629170758455132,
        "Eccentricity": 0.0,
        "Inclination(deg)": 53.0,
        "Latitude(deg)": 28.774659061420127,
        "Longitude(deg)": 10.738692355916927,
        "Mean Anomaly(deg)": 36.917052302320755,
        "RAAN(deg)": 89.95590454341482,
        "Satellite Name": "Starlink Shell 1 417",
        "Satellite Number": 417,
        "Semi-Major Axis(m)": 6931778.249405717,
        "Time(s)": 850
    },
    {
        "Altitude(m)": 554918.5611525311,
        "Argument of Periapsis(deg)": 0.02997774923796637,
        "Eccentricity": 0.0,
        "Inclination(deg)": 53.0,
        "Latitude(deg)": 29.232147807787168,
        "Longitude(deg)": 11.189175018498638,
        "Mean Anomaly(deg)": 37.54388350587744,
        "RAAN(deg)": 89.95538577333734,
        "Satellite Name": "Starlink Shell 1 417",
        "Satellite Number": 417,
        "Semi-Major Axis(m)": 6931778.249405717,
        "Time(s)": 860
    },
    {
        "Altitude(m)": 554990.5025329355,
        "Argument of Periapsis(deg)": 0.030326327717477602,
        "Eccentricity": 0.0,
        "Inclination(deg)": 53.0,
        "Latitude(deg)": 29.68778151606043,
        "Longitude(deg)": 11.644036837506553,
        "Mean Anomaly(deg)": 38.1707147094342,
        "RAAN(deg)": 89.95486700325986,
        "Satellite Name": "Starlink Shell 1 417",
        "Satellite Number": 417,
        "Semi-Major Axis(m)": 6931778.249405717,
        "Time(s)": 870
    },
    {
        "Altitude(m)": 555063.5433476272,
        "Argument of Periapsis(deg)": 0.030674906196988847,
        "Eccentricity": 0.0,
        "Inclination(deg)": 53.0,
        "Latitude(deg)": 30.141509406709567,
        "Longitude(deg)": 12.103381338055076,
        "Mean Anomaly(deg)": 38.79754591299095,
        "RAAN(deg)": 89.9543482331824,
        "Satellite Name": "Starlink Shell 1 417",
        "Satellite Number": 417,
        "Semi-Major Axis(m)": 6931778.249405717,
        "Time(s)": 880
    },
    {
        "Altitude(m)": 555137.6299544978,
        "Argument of Periapsis(deg)": 0.031023484676500086,
        "Eccentricity": 0.0,
        "Inclination(deg)": 53.0,
        "Latitude(deg)": 30.59327955380402,
        "Longitude(deg)": 12.56731334822649,
        "Mean Anomaly(deg)": 39.4243771165476,
        "RAAN(deg)": 89.95382946310492,
        "Satellite Name": "Starlink Shell 1 417",
        "Satellite Number": 417,
        "Semi-Major Axis(m)": 6931778.249405717,
        "Time(s)": 890
    },
    {
        "Altitude(m)": 555212.7083797932,
        "Argument of Periapsis(deg)": 0.03137206315601132,
        "Eccentricity": 0.0,
        "Inclination(deg)": 53.0,
        "Latitude(deg)": 31.04303885333229,
        "Longitude(deg)": 13.035939489326788,
        "Mean Anomaly(deg)": 40.051208320104365,
        "RAAN(deg)": 89.95331069302745,
        "Satellite Name": "Starlink Shell 1 417",
        "Satellite Number": 417,
        "Semi-Major Axis(m)": 6931778.249405717,
        "Time(s)": 900
    },
    {
        "Altitude(m)": 555288.7243465396,
        "Argument of Periapsis(deg)": 0.03172064163552255,
        "Eccentricity": 0.0,
        "Inclination(deg)": 53.0,
        "Latitude(deg)": 31.490732991181325,
        "Longitude(deg)": 13.509367149055006,
        "Mean Anomaly(deg)": 40.678039523661035,
        "RAAN(deg)": 89.95279192294998,
        "Satellite Name": "Starlink Shell 1 417",
        "Satellite Number": 417,
        "Semi-Major Axis(m)": 6931778.249405717,
        "Time(s)": 910
    },
    {
        "Altitude(m)": 555365.6233030409,
        "Argument of Periapsis(deg)": 0.0320692201150338,
        "Eccentricity": 0.0,
        "Inclination(deg)": 53.0,
        "Latitude(deg)": 31.93630641082521,
        "Longitude(deg)": 13.987704963003114,
        "Mean Anomaly(deg)": 41.304870727217796,
        "RAAN(deg)": 89.95227315287251,
        "Satellite Name": "Starlink Shell 1 417",
        "Satellite Number": 417,
        "Semi-Major Axis(m)": 6931778.249405717,
        "Time(s)": 920
    },
    {
        "Altitude(m)": 555443.3504515031,
        "Argument of Periapsis(deg)": 0.032417798594545036,
        "Eccentricity": 0.0,
        "Inclination(deg)": 53.0,
        "Latitude(deg)": 32.379702280765116,
        "Longitude(deg)": 14.471063291256868,
        "Mean Anomaly(deg)": 41.93170193077445,
        "RAAN(deg)": 89.95175438279503,
        "Satellite Name": "Starlink Shell 1 417",
        "Satellite Number": 417,
        "Semi-Major Axis(m)": 6931778.249405717,
        "Time(s)": 930
    },
    {
        "Altitude(m)": 555521.8507767064,
        "Argument of Periapsis(deg)": 0.03276637707405627,
        "Eccentricity": 0.0,
        "Inclination(deg)": 53.0,
        "Latitude(deg)": 32.820862461772755,
        "Longitude(deg)": 14.959553176855655,
        "Mean Anomaly(deg)": 42.5585331343312,
        "RAAN(deg)": 89.95123561271757,
        "Satellite Name": "Starlink Shell 1 417",
        "Satellite Number": 417,
        "Semi-Major Axis(m)": 6931778.249405717,
        "Time(s)": 940
    }
]